{
  "norad_id": 59155,
  "name": "STARLINK-31341",
  "history": [
    {
      "epoch": "2026-04-11T18:46:58.421568Z",
      "apogee_km": 483.7999862596862,
      "perigee_km": 482.3316888524487,
      "latitude_deg": -3.2146200289973944e-05,
      "longitude_deg": 162.10627796597424,
      "height_km": 482.90664954794903,
      "semi_major_axis_km": 6861.202837556067,
      "eccentricity": 0.000107,
      "inclination_deg": 43.0002,
      "raan_deg": 283.8469,
      "arg_perigee_deg": 264.9693,
      "mean_anomaly_deg": 95.1036,
      "mean_motion_rev_day": 15.27574409
    },
    {
      "epoch": "2026-04-12T23:01:47.148672Z",
      "apogee_km": 483.9693804426761,
      "perigee_km": 482.1193315018527,
      "latitude_deg": -9.627981437265825e-06,
      "longitude_deg": 90.59801387899962,
      "height_km": 482.8216674396736,
      "semi_major_axis_km": 6861.181355972264,
      "eccentricity": 0.00013482,
      "inclination_deg": 43.0023,
      "raan_deg": 277.2017,
      "arg_perigee_deg": 269.9755,
      "mean_anomaly_deg": 90.0942,
      "mean_motion_rev_day": 15.27581583
    },
    {
      "epoch": "2026-04-14T20:00:01.999008Z",
      "apogee_km": 484.1228286838168,
      "perigee_km": 482.1577588668806,
      "latitude_deg": -34.87384270576879,
      "longitude_deg": -8.38363509902022,
      "height_km": 492.3778194945821,
      "semi_major_axis_km": 6861.277293775349,
      "eccentricity": 0.0001432,
      "inclination_deg": 43.001,
      "raan_deg": 266.6226,
      "arg_perigee_deg": 280.1836,
      "mean_anomaly_deg": 316.4101,
      "mean_motion_rev_day": 15.27549544
    },
    {
      "epoch": "2026-04-15T20:04:39.006048Z",
      "apogee_km": 484.0087967485815,
      "perigee_km": 482.0478756954908,
      "latitude_deg": -9.468826791062943e-07,
      "longitude_deg": 115.7978646440571,
      "height_km": 482.76682897782894,
      "semi_major_axis_km": 6861.165336222036,
      "eccentricity": 0.0001429,
      "inclination_deg": 43.003,
      "raan_deg": 260.9533,
      "arg_perigee_deg": 272.2546,
      "mean_anomaly_deg": 87.8142,
      "mean_motion_rev_day": 15.27586933
    },
    {
      "epoch": "2026-04-16T18:03:00.259776Z",
      "apogee_km": 485.423821544814,
      "perigee_km": 483.5558145249461,
      "latitude_deg": 3.9521899704347966e-05,
      "longitude_deg": 140.13627094090242,
      "height_km": 484.81574909827947,
      "semi_major_axis_km": 6862.62681803488,
      "eccentricity": 0.0001361,
      "inclination_deg": 43.0034,
      "raan_deg": 255.7826,
      "arg_perigee_deg": 233.989,
      "mean_anomaly_deg": 126.0836,
      "mean_motion_rev_day": 15.27098981
    },
    {
      "epoch": "2026-04-17T17:35:12.535008Z",
      "apogee_km": 483.9604485763075,
      "perigee_km": 482.1464870404279,
      "latitude_deg": -2.0677875468771258e-05,
      "longitude_deg": 140.5796415728236,
      "height_km": 482.98113633928403,
      "semi_major_axis_km": 6861.190467808367,
      "eccentricity": 0.00013219,
      "inclination_deg": 43.0031,
      "raan_deg": 250.2438,
      "arg_perigee_deg": 260.4343,
      "mean_anomaly_deg": 99.6359,
      "mean_motion_rev_day": 15.2757854
    },
    {
      "epoch": "2026-04-18T15:33:23.019840Z",
      "apogee_km": 484.18417306363517,
      "perigee_km": 481.8856804681682,
      "latitude_deg": 2.052537710361134e-06,
      "longitude_deg": 164.96182076044008,
      "height_km": 482.68213209543364,
      "semi_major_axis_km": 6861.171926765901,
      "eccentricity": 0.0001675,
      "inclination_deg": 43.0062,
      "raan_deg": 245.0719,
      "arg_perigee_deg": 276.5161,
      "mean_anomaly_deg": 83.55,
      "mean_motion_rev_day": 15.27584732
    },
    {
      "epoch": "2026-04-19T19:48:12.210048Z",
      "apogee_km": 484.06258336917017,
      "perigee_km": 481.9946280556078,
      "latitude_deg": -1.3333935502548017e-05,
      "longitude_deg": 93.45038115662608,
      "height_km": 483.00315992824505,
      "semi_major_axis_km": 6861.165605712388,
      "eccentricity": 0.0001507,
      "inclination_deg": 43.0047,
      "raan_deg": 238.4255,
      "arg_perigee_deg": 259.0001,
      "mean_anomaly_deg": 101.0681,
      "mean_motion_rev_day": 15.27586843
    },
    {
      "epoch": "2026-04-20T14:38:06.047808Z",
      "apogee_km": 484.35835569436495,
      "perigee_km": 481.74849608016575,
      "latitude_deg": -3.729862597443002e-05,
      "longitude_deg": 165.77134281786937,
      "height_km": 483.1532424171639,
      "semi_major_axis_km": 6861.190425887265,
      "eccentricity": 0.00019019,
      "inclination_deg": 43.005,
      "raan_deg": 233.9942,
      "arg_perigee_deg": 255.7032,
      "mean_anomaly_deg": 104.3608,
      "mean_motion_rev_day": 15.27578554
    },
    {
      "epoch": "2026-04-21T18:52:52.962240Z",
      "apogee_km": 483.8194649342713,
      "perigee_km": 482.1865136168235,
      "latitude_deg": -2.0622480051932203e-05,
      "longitude_deg": 94.271343878433,
      "height_km": 483.0547979530903,
      "semi_major_axis_km": 6861.139989275547,
      "eccentricity": 0.000119,
      "inclination_deg": 43.002,
      "raan_deg": 227.3497,
      "arg_perigee_deg": 250.3053,
      "mean_anomaly_deg": 109.767,
      "mean_motion_rev_day": 15.27595398
    },
    {
      "epoch": "2026-04-22T18:25:16.021056Z",
      "apogee_km": 483.91405864904664,
      "perigee_km": 482.27010816066286,
      "latitude_deg": 3.2249875402134004e-05,
      "longitude_deg": 94.66947672601273,
      "height_km": 483.1119384968543,
      "semi_major_axis_km": 6861.2290834048545,
      "eccentricity": 0.0001198,
      "inclination_deg": 43.0015,
      "raan_deg": 221.8106,
      "arg_perigee_deg": 252.7873,
      "mean_anomaly_deg": 107.2848,
      "mean_motion_rev_day": 15.27565644
    },
    {
      "epoch": "2026-04-23T13:15:07.892352Z",
      "apogee_km": 484.21376560974386,
      "perigee_km": 481.8773957173762,
      "latitude_deg": -2.0269430515434644e-05,
      "longitude_deg": 167.00022398967178,
      "height_km": 482.9255676410173,
      "semi_major_axis_km": 6861.18258066356,
      "eccentricity": 0.00017026,
      "inclination_deg": 43.0016,
      "raan_deg": 217.3809,
      "arg_perigee_deg": 264.9475,
      "mean_anomaly_deg": 95.1182,
      "mean_motion_rev_day": 15.27581174
    },
    {
      "epoch": "2026-04-24T12:47:28.905216Z",
      "apogee_km": 484.5373335369013,
      "perigee_km": 481.554091293543,
      "latitude_deg": -1.088930695404563e-05,
      "longitude_deg": 167.40845974606873,
      "height_km": 482.37135209765387,
      "semi_major_axis_km": 6861.182712415222,
      "eccentricity": 0.0002174,
      "inclination_deg": 43.0034,
      "raan_deg": 211.8434,
      "arg_perigee_deg": 287.6407,
      "mean_anomaly_deg": 72.4207,
      "mean_motion_rev_day": 15.2758113
    },
    {
      "epoch": "2026-04-25T12:19:49.505952Z",
      "apogee_km": 485.031802315234,
      "perigee_km": 481.06466501312934,
      "latitude_deg": -3.0972365245539645e-05,
      "longitude_deg": 167.81408680991584,
      "height_km": 482.3151047079237,
      "semi_major_axis_km": 6861.185233664181,
      "eccentricity": 0.0002891,
      "inclination_deg": 43.0025,
      "raan_deg": 206.3016,
      "arg_perigee_deg": 284.9348,
      "mean_anomaly_deg": 75.1183,
      "mean_motion_rev_day": 15.27580288
    },
    {
      "epoch": "2026-04-26T16:34:38.770464Z",
      "apogee_km": 484.02611026648265,
      "perigee_km": 482.09619245046906,
      "latitude_deg": 1.4781142356291622e-05,
      "longitude_deg": 96.30310334886481,
      "height_km": 483.25982807709266,
      "semi_major_axis_km": 6861.198151358476,
      "eccentricity": 0.00014064,
      "inclination_deg": 43.0042,
      "raan_deg": 199.6559,
      "arg_perigee_deg": 244.0878,
      "mean_anomaly_deg": 115.9829,
      "mean_motion_rev_day": 15.27575974
    }
  ]
}